{
  "norad_id": 49291,
  "name": "ONEWEB-0365",
  "history": [
    {
      "epoch": "2026-03-28T21:31:16.603680Z",
      "apogee_km": 1187.1356828280268,
      "perigee_km": 1184.3967934654938,
      "latitude_deg": 1.9363600428463782e-05,
      "longitude_deg": 171.83683526026505,
      "height_km": 1188.5117416829285,
      "semi_major_axis_km": 7563.9032381467605,
      "eccentricity": 0.00018105,
      "inclination_deg": 87.921,
      "raan_deg": 320.9666,
      "arg_perigee_deg": 83.5811,
      "mean_anomaly_deg": 276.5528,
      "mean_motion_rev_day": 13.19726129
    },
    {
      "epoch": "2026-03-29T04:47:58.837920Z",
      "apogee_km": 1187.1471884542843,
      "perigee_km": 1184.3818260632315,
      "latitude_deg": 1.7250787502472106e-05,
      "longitude_deg": 62.30164604450969,
      "height_km": 1188.5101469793713,
      "semi_major_axis_km": 7563.901507258758,
      "eccentricity": 0.0001828,
      "inclination_deg": 87.9208,
      "raan_deg": 320.9063,
      "arg_perigee_deg": 83.6498,
      "mean_anomaly_deg": 276.4843,
      "mean_motion_rev_day": 13.19726582
    },
    {
      "epoch": "2026-03-30T04:27:16.199424Z",
      "apogee_km": 1187.1412175875012,
      "perigee_km": 1184.3879574096527,
      "latitude_deg": 1.0036383086136479e-05,
      "longitude_deg": 66.31203775876553,
      "height_km": 1188.5099273105686,
      "semi_major_axis_km": 7563.901587498577,
      "eccentricity": 0.000182,
      "inclination_deg": 87.9207,
      "raan_deg": 320.7105,
      "arg_perigee_deg": 83.6086,
      "mean_anomaly_deg": 276.5254,
      "mean_motion_rev_day": 13.19726561
    },
    {
      "epoch": "2026-03-30T15:22:19.603488Z",
      "apogee_km": 1187.134489977374,
      "perigee_km": 1184.3969623027297,
      "latitude_deg": -6.636735453020567e-05,
      "longitude_deg": -97.99101847806241,
      "height_km": 1188.5087662310355,
      "semi_major_axis_km": 7563.9027261400515,
      "eccentricity": 0.00018096,
      "inclination_deg": 87.9206,
      "raan_deg": 320.62,
      "arg_perigee_deg": 83.4736,
      "mean_anomaly_deg": 276.6602,
      "mean_motion_rev_day": 13.19726263
    }
  ]
}